NORAD_CAT_ID,OBJECT_NAME,OBJECT_TYPE,EPOCH,MEAN_MOTION,ECCENTRICITY,INCLINATION,RA_OF_ASC_NODE,ARG_OF_PERICENTER,MEAN_ANOMALY,BSTAR,MEAN_MOTION_DOT,MEAN_MOTION_DDOT,TLE_LINE0,TLE_LINE1,TLE_LINE2,SEMIMAJOR_AXIS,PERIOD,APOGEE,PERIGEE,DECAYED
53866.0,STARLINK-4762,PAYLOAD,2022-09-23 16:00:00,15.88594396,0.003239,53.2174,236.2056,55.4231,42.2604,-0.0040652,-0.01214953,0.00042187,0 STARLINK-4762,1 53866U 22114BA  22266.66667824 -.01214953  42187-3 -40652-2 0  9992,2 53866  53.2174 236.2056 0032390  55.4231  42.2604 15.88594396  1303,6684.36,90.646,327.876,284.574,0.0
53866.0,STARLINK-4762,PAYLOAD,2022-09-24 06:00:00,15.87086247,0.0026546,53.2171,233.257,56.9161,137.2967,-0.0045853,-0.01250814,0.00043867,0 STARLINK-4762,1 53866U 22114BA  22267.25001157 -.01250814  43867-3 -45853-2 0  9999,2 53866  53.2171 233.2570 0026546  56.9161 137.2967 15.87086247  1398,6688.594,90.732,328.214,292.703,0.0
53866.0,STARLINK-4762,PAYLOAD,2022-09-24 14:00:01,15.86286443,0.0022936,53.2168,231.5731,57.1552,242.2437,-0.0052437,-0.01363254,0.00050945,0 STARLINK-4762,1 53866U 22114BA  22267.58335648 -.01363254  50945-3 -52437-2 0  9994,2 53866  53.2168 231.5731 0022936  57.1552 242.2437 15.86286443  1309,6690.842,90.778,328.05300000000005,297.361,0.0
53866.0,STARLINK-4762,PAYLOAD,2022-09-24 22:00:00,15.85393493,0.0019434,53.2176,229.8922,55.603,347.8477,-0.0052834,-0.01159098,0.0,0 STARLINK-4762,1 53866U 22114BA  22267.91667824 -.01159098  00000-0 -52834-2 0  9999,2 53866  53.2176 229.8922 0019434  55.6030 347.8477 15.85393493  1302,6693.354,90.829,328.227,302.211,0.0
53866.0,STARLINK-4762,PAYLOAD,2022-09-25 14:00:01,15.83693178,0.001214,53.2174,226.5381,52.1428,196.3869,-0.0061206,-0.0123584,0.0,0 STARLINK-4762,1 53866U 22114BA  22268.58334491 -.01235840  00000-0 -61206-2 0  9997,2 53866  53.2174 226.5381 0012140  52.1428 196.3869 15.83693178  1609,6698.144,90.927,328.141,311.877,0.0
53866.0,STARLINK-4762,PAYLOAD,2022-09-25 22:00:01,15.82807381,0.0009078,53.2175,224.8632,45.4118,304.1715,-0.0062236999999999,-0.01203694,0.0,0 STARLINK-4762,1 53866U 22114BA  22268.91668981 -.01203694  00000-0 -62237-2 0  9995,2 53866  53.2175 224.8632 0009078  45.4118 304.1715 15.82807381  1305,6700.643,90.978,328.591,316.425,0.0
53866.0,STARLINK-4762,PAYLOAD,2022-09-26 10:00:00,15.81516163,0.0005197,53.2171,222.3577,35.4399,283.5885,-0.0067295,-0.01218092,0.0,0 STARLINK-4762,1 53866U 22114BA  22269.41667824 -.01218092  00000-0 -67295-2 0  9993,2 53866  53.2171 222.3577 0005197  35.4399 283.5885 15.81516163  1739,6704.2890000000025,91.052,329.639,322.67,0.0
53866.0,STARLINK-4762,PAYLOAD,2022-09-26 14:00:01,15.81074135,0.0004412,53.2174,221.5218,29.9971,158.3525,-0.0067916,-0.01205024,0.0,0 STARLINK-4762,1 53866U 22114BA  22269.58334491 -.01205024  00000-0 -67916-2 0  9993,2 53866  53.2174 221.5218 0004412  29.9971 158.3525 15.81074135  1309,6705.5390000000025,91.077,330.362,324.445,0.0
53866.0,STARLINK-4762,PAYLOAD,2022-09-26 22:00:00,15.80340016,0.0002515,53.2171,219.8524,332.4186,313.7128,-0.0081393,-0.01396482,0.0,0 STARLINK-4762,1 53866U 22114BA  22269.91667824 -.01396482  00000-0 -81393-2 0  9993,2 53866  53.2171 219.8524 0002515 332.4186 313.7128 15.80340016  1307,6707.615,91.12,331.167,327.793,0.0
53866.0,STARLINK-4762,PAYLOAD,2022-09-27 06:00:00,15.79408178,0.0004826999999999,53.2174,218.1891,285.2086,97.7645,-0.0079198,-0.01289684,0.0,0 STARLINK-4762,1 53866U 22114BA  22270.25001157 -.01289684  00000-0 -79198-2 0  9998,2 53866  53.2174 218.1891 0004827 285.2086  97.7645 15.79408178  1867,6710.253000000002,91.173,335.357,328.879,0.0
53866.0,STARLINK-4762,PAYLOAD,2022-09-27 14:00:01,15.78483956,0.0006443,53.2172,216.524,275.0105,203.7591,-0.0077516,-0.01220402,0.0,0 STARLINK-4762,1 53866U 22114BA  22270.58334491 -.01220402  00000-0 -77516-2 0  9999,2 53866  53.2172 216.5240 0006443 275.0105 203.7591 15.78483956  1304,6712.871999999999,91.227,339.0630000000001,330.412,0.0
53866.0,STARLINK-4762,PAYLOAD,2022-09-27 22:00:01,15.77558824,0.0006109,53.2169,214.8617,269.0249,304.5612,-0.0075194,-0.01143882,0.0,0 STARLINK-4762,1 53866U 22114BA  22270.91668981 -.01143882  00000-0 -75194-2 0  9996,2 53866  53.2169 214.8617 0006109 269.0249 304.5612 15.77558824  1973,6715.496999999999,91.28,341.464,333.259,0.0
53866.0,STARLINK-4762,PAYLOAD,2022-09-28 06:00:00,15.76714593,0.0003437,53.2175,213.206,269.5866,37.5982,-0.0080164,-0.0116887,0.0,0 STARLINK-4762,1 53866U 22114BA  22271.25001157 -.01168870  00000-0 -80164-2 0  9997,2 53866  53.2175 213.2060 0003437 269.5866  37.5982 15.76714593  2022,6717.894,91.329,342.06699999999995,337.45,0.0
53866.0,STARLINK-4762,PAYLOAD,2022-09-28 14:00:01,15.75925047,8.51e-05,53.2174,211.5464,24.8375,14.9503,-0.0091701,-0.01298055,0.0,0 STARLINK-4762,1 53866U 22114BA  22271.58334491 -.01298055  00000-0 -91701-2 0  9991,2 53866  53.2174 211.5464 0000851  24.8375  14.9503 15.75925047  1309,6720.137,91.375,342.574,341.43,0.0
53866.0,STARLINK-4762,PAYLOAD,2022-09-28 22:00:00,15.75061711,0.0001372,53.2172,209.8908,56.8765,74.5019,-0.0095642999999999,-0.01302904,0.0,0 STARLINK-4762,1 53866U 22114BA  22271.91667824 -.01302904  00000-0 -95643-2 0  9995,2 53866  53.2172 209.8908 0001372  56.8765  74.5019 15.75061711  2132,6722.593000000003,91.425,345.38,343.535,0.0
53866.0,STARLINK-4762,PAYLOAD,2022-09-29 06:00:00,15.73997816,0.0001526,53.2174,208.2403,63.1758,158.8059,-0.0062476999999999,-0.00824153,0.0,0 STARLINK-4762,1 53866U 22114BA  22272.25001157 -.00824153  00000-0 -62477-2 0  9997,2 53866  53.2174 208.2403 0001526  63.1758 158.8059 15.73997816  2188,6725.621999999999,91.487,348.51300000000015,346.46,0.0
53866.0,STARLINK-4762,PAYLOAD,2022-09-29 14:00:01,15.73265996,0.0001355,53.2175,206.5883,72.0399,239.4817,-0.00072663,-0.00101661,0.0,0 STARLINK-4762,1 53866U 22114BA  22272.58334491 -.00101661  00000-0 -72663-3 0  9994,2 53866  53.2175 206.5883 0001355  72.0399 239.4817 15.73265996  1300,6727.706999999999,91.529,350.4840000000001,348.66,0.0
53866.0,STARLINK-4762,PAYLOAD,2022-09-29 20:00:01,15.73203902,0.0001142,53.2175,205.3506,73.9193,214.3969,1.4585e-05,1.428e-05,0.0,0 STARLINK-4762,1 53866U 22114BA  22272.83335648  .00001428  00000-0  14585-4 0  9995,2 53866  53.2175 205.3506 0001142  73.9193 214.3969 15.73203902  2271,6727.884,91.533,350.517,348.981,0.0
53866.0,STARLINK-4762,PAYLOAD,2022-09-29 22:00:00,15.73297586,0.0001075999999999,53.2147,204.93400000000003,74.7645,325.6094,-0.00036296,-0.0005146,0.0,0 STARLINK-4762,1 53866U 22114BA  22272.91667824 -.00051460  00000-0 -36296-3 0  9993,2 53866  53.2147 204.9340 0001076  74.7645 325.6094 15.73297586  1307,6727.6169999999975,91.528,350.206,348.7580000000001,0.0
53866.0,STARLINK-4762,PAYLOAD,2022-09-30 14:00:01,15.73243599,0.0001018,53.215,201.6344,74.5541,143.8379,3.3572e-05,4.103e-05,0.0,0 STARLINK-4762,1 53866U 22114BA  22273.58334491  .00004103  00000-0  33572-4 0  9993,2 53866  53.2150 201.6344 0001018  74.5541 143.8379 15.73243599  1309,6727.771,91.531,350.321,348.951,0.0
53866.0,STARLINK-4762,PAYLOAD,2022-09-30 16:00:00,15.73242719,0.0001025,53.2147,201.2217,77.0894,253.5494,3.7739e-05,4.689e-05,0.0,0 STARLINK-4762,1 53866U 22114BA  22273.66667824  .00004689  00000-0  37739-4 0  9999,2 53866  53.2147 201.2217 0001025  77.0894 253.5494 15.73242719  2409,6727.773,91.531,350.32800000000015,348.949,0.0
53866.0,STARLINK-4762,PAYLOAD,2022-09-30 22:00:00,15.73272589,0.0001144,53.2148,199.9851,77.7627,229.6135,-0.00043016,-0.00060742,0.0,0 STARLINK-4762,1 53866U 22114BA  22273.91667824 -.00060742  00000-0 -43016-3 0  9995,2 53866  53.2148 199.9851 0001144  77.7627 229.6135 15.73272589  1302,6727.688,91.529,350.3230000000001,348.784,0.0
53866.0,STARLINK-4762,PAYLOAD,2022-10-01 14:00:01,15.73195911,0.0001035,53.214,196.6855,82.5738,42.7318,-0.00010578,-0.00015435,0.0,0 STARLINK-4762,1 53866U 22114BA  22274.58334491 -.00015435  00000-0 -10578-3 0  9996,2 53866  53.2140 196.6855 0001035  82.5738  42.7318 15.73195911  2556,6727.906999999997,91.533,350.468,349.075,0.0
53866.0,STARLINK-4762,PAYLOAD,2022-10-01 22:00:00,15.73215101,0.0001034,53.2142,195.0366,85.006,129.207,-0.00071158,-0.00099375,0.0,0 STARLINK-4762,1 53866U 22114BA  22274.91667824 -.00099375  00000-0 -71158-3 0  9998,2 53866  53.2142 195.0366 0001034  85.0060 129.2070 15.73215101  1305,6727.852,91.532,350.413,349.021,0.0
53866.0,STARLINK-4762,PAYLOAD,2022-10-02 14:00:01,15.73141863,8.56e-05,53.2144,191.7369,86.9125,305.0761,0.00077952,0.00109947,0.0,0 STARLINK-4762,1 53866U 22114BA  22275.58334491  .00109947  00000-0  77952-3 0  9996,2 53866  53.2144 191.7369 0000856  86.9125 305.0761 15.73141863  1300,6728.061,91.537,350.50199999999984,349.35,0.0
53866.0,STARLINK-4762,PAYLOAD,2022-10-02 22:00:00,15.73262485,0.0001042,53.2144,190.0881,84.0905,36.7948,-0.00013349,-0.00019361,0.0,0 STARLINK-4762,1 53866U 22114BA  22275.91667824 -.00019361  00000-0 -13349-3 0  9994,2 53866  53.2144 190.0881 0001042  84.0905  36.7948 15.73262485  2764,6727.717,91.53,350.283,348.881,0.0
53866.0,STARLINK-4762,PAYLOAD,2022-10-03 14:00:01,15.73226794,0.000118,53.2139,186.788,94.8412,204.0543,0.0001189,0.00016118,0.0,0 STARLINK-4762,1 53866U 22114BA  22276.58334491  .00016118  00000-0  11890-3 0  9993,2 53866  53.2139 186.7880 0001180  94.8412 204.0543 15.73226794  1307,6727.819,91.532,350.478,348.89,0.0
53866.0,STARLINK-4762,PAYLOAD,2022-10-03 22:00:00,15.732593,0.0001036,53.2143,185.1394,93.3732,294.4567,-0.00028659,-0.00040747,0.0,0 STARLINK-4762,1 53866U 22114BA  22276.91667824 -.00040747  00000-0 -28659-3 0  9997,2 53866  53.2143 185.1394 0001036  93.3732 294.4567 15.73259300  1302,6727.726,91.53,350.288,348.894,0.0
53866.0,STARLINK-4762,PAYLOAD,2022-10-04 06:00:00,15.73241797,0.0001012,53.2142,183.4908,83.1095,33.7009,-9.8524e-05,-0.00014448,0.0,0 STARLINK-4762,1 53866U 22114BA  22277.25001157 -.00014448  00000-0 -98524-4 0  9994,2 53866  53.2142 183.4908 0001012  83.1095  33.7009 15.73241797  2976,6727.776,91.531,350.32199999999995,348.96,0.0
